ORBCOMM FM115 [+]       
1 41186U 15081H   24081.56251105  .00001820  00000+0  40701-3 0  9990
2 41186  47.0005  28.8752 0000398 222.7176 137.3680 14.60468190441564
ORBCOMM FM108 [+]       
1 41187U 15081J   24081.40010364  .00001347  00000+0  33827-3 0  9999
2 41187  47.0046  82.3710 0002460   8.4791 351.6135 14.56370657440754
ORBCOMM FM117 [+]       
1 41188U 15081K   24081.70900856  .00001488  00000+0  36968-3 0  9992
2 41188  47.0008  79.8272 0002658  25.0460 335.0554 14.56376621440842
